[{"OBJECT_NAME":"SDA_1673","OBJECT_ID":"2025-230K","EPOCH":"2026-03-09T17:15:35.607168","MEAN_MOTION":13.85421507,"ECCENTRICITY":0.00025222,"INCLINATION":81.3013,"RA_OF_ASC_NODE":303.8171,"ARG_OF_PERICENTER":101.7636,"MEAN_ANOMALY":258.3805,"EPHEMERIS_TYPE":0,"CLASSIFICATION_TYPE":"U","NORAD_CAT_ID":65983,"ELEMENT_SET_NO":999,"REV_AT_EPOCH":2005,"BSTAR":-0.017090367,"MEAN_MOTION_DOT":-0.00019388,"MEAN_MOTION_DDOT":0},{"OBJECT_NAME":"UNKNOWN","OBJECT_ID":"","EPOCH":"2026-03-04T17:54:07.486272","MEAN_MOTION":13.82274067,"ECCENTRICITY":0.0039118,"INCLINATION":100.4046,"RA_OF_ASC_NODE":65.3082,"ARG_OF_PERICENTER":183.0651,"MEAN_ANOMALY":355.2593,"EPHEMERIS_TYPE":0,"CLASSIFICATION_TYPE":"U","NORAD_CAT_ID":81392,"ELEMENT_SET_NO":999,"REV_AT_EPOCH":61350,"BSTAR":0.0034598,"MEAN_MOTION_DOT":3.705e-5,"MEAN_MOTION_DDOT":0}]
